[{"OBJECT_NAME":"STARLINK-35914","OBJECT_ID":"2025-265S","EPOCH":"2026-03-09T23:09:11.309472","MEAN_MOTION":15.27607114,"ECCENTRICITY":0.00016422,"INCLINATION":43.0037,"RA_OF_ASC_NODE":276.5397,"ARG_OF_PERICENTER":234.5812,"MEAN_ANOMALY":125.4886,"EPHEMERIS_TYPE":0,"CLASSIFICATION_TYPE":"U","NORAD_CAT_ID":66532,"ELEMENT_SET_NO":999,"REV_AT_EPOCH":1715,"BSTAR":0.0011944838,"MEAN_MOTION_DOT":0.00032781,"MEAN_MOTION_DDOT":0},{"OBJECT_NAME":"PUCP-SAT 1","OBJECT_ID":"2013-066AC","EPOCH":"2026-03-09T22:02:13.763904","MEAN_MOTION":15.29426022,"ECCENTRICITY":0.00136836,"INCLINATION":97.5787,"RA_OF_ASC_NODE":61.0032,"ARG_OF_PERICENTER":300.1183,"MEAN_ANOMALY":59.87,"EPHEMERIS_TYPE":0,"CLASSIFICATION_TYPE":"U","NORAD_CAT_ID":39442,"ELEMENT_SET_NO":999,"REV_AT_EPOCH":66907,"BSTAR":0.00088755185,"MEAN_MOTION_DOT":0.00025373,"MEAN_MOTION_DDOT":0}]
